NORAD_CAT_ID,OBJECT_NAME,OBJECT_TYPE,EPOCH,MEAN_MOTION,ECCENTRICITY,INCLINATION,RA_OF_ASC_NODE,ARG_OF_PERICENTER,MEAN_ANOMALY,BSTAR,MEAN_MOTION_DOT,MEAN_MOTION_DDOT,TLE_LINE0,TLE_LINE1,TLE_LINE2,SEMIMAJOR_AXIS,PERIOD,APOGEE,PERIGEE,DECAYED
53551.0,STARLINK-4514,PAYLOAD,2024-02-14 14:29:56,15.08838727,0.0001293,53.2152,209.3382,102.3379,257.7758,3.479e-05,2.66e-06,0.0,0 STARLINK-4514,1 53551U 22101AA  24045.60413072  .00000266  00000-0  34790-4 0  9994,2 53551  53.2152 209.3382 0001293 102.3379 257.7758 15.08838727 83120,6917.884,95.438,540.644,538.855,0.0
53551.0,STARLINK-4514,PAYLOAD,2024-02-14 20:51:29,15.08840465,0.0001457,53.2161,208.1524,93.6203,266.4955,8.7056e-05,1.098e-05,0.0,0 STARLINK-4514,1 53551U 22101AA  24045.86908983  .00001098  00000-0  87056-4 0  9999,2 53551  53.2161 208.1524 0001457  93.6203 266.4955 15.08840465 83167,6917.879,95.438,540.752,538.736,0.0
53551.0,STARLINK-4514,PAYLOAD,2024-02-15 14:20:44,15.0883754,0.0001518,53.2167,204.8814,93.5424,266.5742,2.0049e-05,3.1e-07,0.0,0 STARLINK-4514,1 53551U 22101AA  24046.59773634  .00000031  00000-0  20049-4 0  9998,2 53551  53.2167 204.8814 0001518  93.5424 266.5742 15.08837540 83277,6917.888,95.438,540.803,538.703,0.0
53551.0,STARLINK-4514,PAYLOAD,2024-02-15 17:31:30,15.08845191,0.0001436,53.217,204.2895,92.389,267.7267,6.8562e-07,-2.77e-06,0.0,0 STARLINK-4514,1 53551U 22101AA  24046.73021183 -.00000277  00000-0  68562-6 0  9996,2 53551  53.2170 204.2895 0001436  92.3890 267.7267 15.08845191 82632,6917.865,95.437,540.723,538.736,0.0
53551.0,STARLINK-4514,PAYLOAD,2024-02-16 14:11:30,15.08843227,0.0001522,53.2171,200.4234,106.7987,253.3172,0.00011554,1.551e-05,0.0,0 STARLINK-4514,1 53551U 22101AA  24047.59133037  .00001551  00000-0  11554-3 0  9994,2 53551  53.2171 200.4234 0001522 106.7987 253.3172 15.08843227 83423,6917.871,95.437,540.788,538.683,0.0
53551.0,STARLINK-4514,PAYLOAD,2024-02-16 15:46:54,15.08844533,0.0001397,53.2167,200.1265,95.4188,264.6964,0.00012573,1.714e-05,0.0,0 STARLINK-4514,1 53551U 22101AA  24047.65756979  .00001714  00000-0  12573-3 0  9990,2 53551  53.2167 200.1265 0001397  95.4188 264.6964 15.08844533 83432,6917.867,95.437,540.698,538.765,0.0
53551.0,STARLINK-4514,PAYLOAD,2024-02-17 12:26:54,15.08847612,0.0001355,53.2166,196.259,92.3022,267.8125,0.00012259,1.664e-05,0.0,0 STARLINK-4514,1 53551U 22101AA  24048.51868630  .00001664  00000-0  12259-3 0  9999,2 53551  53.2166 196.2590 0001355  92.3022 267.8125 15.08847612 82900,6917.857,95.437,540.659,538.785,0.0
53551.0,STARLINK-4514,PAYLOAD,2024-02-17 14:02:18,15.08832642,0.0001176,53.216,195.9609,84.0413,276.0713,9.6873e-05,1.254e-05,0.0,0 STARLINK-4514,1 53551U 22101AA  24048.58493935  .00001254  00000-0  96873-4 0  9998,2 53551  53.2160 195.9609 0001176  84.0413 276.0713 15.08832642 83570,6917.903,95.438,540.581,538.954,0.0
53551.0,STARLINK-4514,PAYLOAD,2024-02-17 18:48:27,15.08837983,0.0001261,53.2164,195.0689,80.7236,279.3899,6.0705e-05,6.78e-06,0.0,0 STARLINK-4514,1 53551U 22101AA  24048.78365694  .00000678  00000-0  60705-4 0  9994,2 53551  53.2164 195.0689 0001261  80.7236 279.3899 15.08837983 82948,6917.887,95.438,540.624,538.879,0.0
53551.0,STARLINK-4514,PAYLOAD,2024-02-18 15:28:28,15.0884096,0.0001245,53.2169,191.2026,88.3973,271.7162,3.1475e-05,2.13e-06,0.0,0 STARLINK-4514,1 53551U 22101AA  24049.64477599  .00000213  00000-0  31475-4 0  9995,2 53551  53.2169 191.2026 0001245  88.3973 271.7162 15.08840960 83736,6917.877,95.437,540.604,538.881,0.0
53551.0,STARLINK-4514,PAYLOAD,2024-02-18 17:03:51,15.08848787,0.0001351,53.2169,190.9069,78.8638,281.2506,0.00014356,1.998e-05,0.0,0 STARLINK-4514,1 53551U 22101AA  24049.71100854  .00001998  00000-0  14356-3 0  9999,2 53551  53.2169 190.9069 0001351  78.8638 281.2506 15.08848787 83080,6917.854,95.437,540.653,538.784,0.0
53551.0,STARLINK-4514,PAYLOAD,2024-02-19 02:36:10,15.08841646,0.0001465,53.2176,189.1241,80.6894,279.4264,8.8154e-05,1.115e-05,0.0,0 STARLINK-4514,1 53551U 22101AA  24050.10845405  .00001115  00000-0  88154-4 0  9991,2 53551  53.2176 189.1241 0001465  80.6894 279.4264 15.08841646 83145,6917.875,95.437,540.754,538.727,0.0
53551.0,STARLINK-4514,PAYLOAD,2024-02-19 15:19:17,15.08729611,8.42e-05,53.2151,186.7436,129.0284,231.0783,0.0014929,0.0002348,0.0,0 STARLINK-4514,1 53551U 22101AA  24050.63839648  .00023480  00000-0  14929-2 0  9997,2 53551  53.2151 186.7436 0000842 129.0284 231.0783 15.08729611 83884,6918.218,95.445,540.665,539.5,0.0
53551.0,STARLINK-4514,PAYLOAD,2024-02-19 18:30:01,15.08841588,0.0001383,53.2167,186.1479,89.7641,270.3509,9.1632e-05,1.171e-05,0.0,0 STARLINK-4514,1 53551U 22101AA  24050.77085434  .00001171  00000-0  91632-4 0  9999,2 53551  53.2167 186.1479 0001383  89.7641 270.3509 15.08841588 83905,6917.876,95.437,540.697,538.784,0.0
53551.0,STARLINK-4514,PAYLOAD,2024-02-20 02:26:57,15.08837197,0.0001343,53.2172,184.6625,88.9036,271.211,4.4217e-05,4.16e-06,0.0,0 STARLINK-4514,1 53551U 22101AA  24051.10205858  .00000416  00000-0  44217-4 0  9999,2 53551  53.2172 184.6625 0001343  88.9036 271.2110 15.08837197 83293,6917.889,95.438,540.683,538.825,0.0
53551.0,STARLINK-4514,PAYLOAD,2024-02-20 15:10:02,15.08841602,0.0001422,53.2172,182.2836,90.8935,269.222,-9.6455e-06,-4.41e-06,0.0,0 STARLINK-4514,1 53551U 22101AA  24051.63197874 -.00000441  00000-0 -96455-5 0  9997,2 53551  53.2172 182.2836 0001422  90.8935 269.2220 15.08841602 84037,6917.875,95.437,540.724,538.757,0.0
53551.0,STARLINK-4514,PAYLOAD,2024-02-20 18:20:48,15.08844591,0.0001491,53.2178,181.6852,115.1256,244.9891,6.0031e-05,6.68e-06,0.0,0 STARLINK-4514,1 53551U 22101AA  24051.76445359  .00000668  00000-0  60031-4 0  9994,2 53551  53.2178 181.6852 0001491 115.1256 244.9891 15.08844591 84053,6917.866,95.437,540.763,538.7,0.0
53551.0,STARLINK-4514,PAYLOAD,2024-02-21 11:50:03,15.08832292,0.0001302,53.2176,178.4132,113.2008,246.9122,0.00016384,2.32e-05,0.0,0 STARLINK-4514,1 53551U 22101AA  24052.49309778  .00002320  00000-0  16384-3 0  9997,2 53551  53.2176 178.4132 0001302 113.2008 246.9122 15.08832292 83504,6917.904,95.438,540.67,538.868,0.0
53551.0,STARLINK-4514,PAYLOAD,2024-02-21 15:00:49,15.08840979,0.0001418,53.2155,177.8228,96.0736,264.0418,0.00011351,1.519e-05,0.0,0 STARLINK-4514,1 53551U 22101AA  24052.62557401  .00001519  00000-0  11351-3 0  9998,2 53551  53.2155 177.8228 0001418  96.0736 264.0418 15.08840979 84189,6917.877,95.437,540.723,538.761,0.0
53551.0,STARLINK-4514,PAYLOAD,2024-02-22 11:40:50,15.08835846,0.0001469,53.2175,173.957,100.1307,259.9851,2.6217e-05,1.29e-06,0.0,0 STARLINK-4514,1 53551U 22101AA  24053.48670109  .00000129  00000-0  26217-4 0  9998,2 53551  53.2175 173.9570 0001469 100.1307 259.9851 15.08835846 83657,6917.893,95.438,540.774,538.742,0.0
53551.0,STARLINK-4514,PAYLOAD,2024-02-22 14:51:37,15.08838723,0.0001506,53.2178,173.3637,91.0139,269.1025,6.0364e-05,6.73e-06,0.0,0 STARLINK-4514,1 53551U 22101AA  24053.61918306  .00000673  00000-0  60364-4 0  9992,2 53551  53.2178 173.3637 0001506  91.0139 269.1025 15.08838723 84330,6917.884,95.438,540.791,538.707,0.0
53551.0,STARLINK-4514,PAYLOAD,2024-02-23 14:42:23,15.08846771,0.0001418,53.2167,168.9057,92.9096,267.2059,1.3814e-05,-6.8e-07,0.0,0 STARLINK-4514,1 53551U 22101AA  24054.61277623 -.00000068  00000-0  13814-4 0  9990,2 53551  53.2167 168.9057 0001418  92.9096 267.2059 15.08846771 84482,6917.86,95.437,540.706,538.744,0.0
53551.0,STARLINK-4514,PAYLOAD,2024-02-24 11:22:25,15.08834653,0.0001571,53.2186,165.0406,94.6564,265.4608,3.1579e-05,2.15e-06,0.0,0 STARLINK-4514,1 53551U 22101AA  24055.47390592  .00000215  00000-0  31579-4 0  9997,2 53551  53.2186 165.0406 0001571  94.6564 265.4608 15.08834653 83955,6917.897,95.438,540.849,538.675,0.0
53551.0,STARLINK-4514,PAYLOAD,2024-02-24 12:57:48,15.08835576,0.0001573,53.2183,164.7434,95.2572,264.8599,4.0387e-05,3.55e-06,0.0,0 STARLINK-4514,1 53551U 22101AA  24055.54014536  .00000355  00000-0  40387-4 0  9998,2 53551  53.2183 164.7434 0001573  95.2572 264.8599 15.08835576 84629,6917.894,95.438,540.847,538.671,0.0
53551.0,STARLINK-4514,PAYLOAD,2024-02-25 11:13:12,15.08841224,0.0001762,53.218,160.5793,111.4368,248.6812,6.6806e-05,7.75e-06,0.0,0 STARLINK-4514,1 53551U 22101AA  24056.46750109  .00000775  00000-0  66806-4 0  9993,2 53551  53.2180 160.5793 0001762 111.4368 248.6812 15.08841224 84100,6917.877,95.437,540.961,538.523,0.0
53551.0,STARLINK-4514,PAYLOAD,2024-02-25 14:23:58,15.08849175,0.0001487,53.2172,159.9828,86.059,274.0572,6.7784e-05,7.91e-06,0.0,0 STARLINK-4514,1 53551U 22101AA  24056.59997711  .00000791  00000-0  67784-4 0  9993,2 53551  53.2172 159.9828 0001487  86.0590 274.0572 15.08849175 84783,6917.852,95.437,540.746,538.689,0.0
53551.0,STARLINK-4514,PAYLOAD,2024-02-26 11:04:00,15.08829606,0.0001863,53.2173,156.1184,88.3515,271.769,-1.6167e-05,-5.45e-06,0.0,0 STARLINK-4514,1 53551U 22101AA  24057.46111624 -.00000545  00000-0 -16167-4 0  9999,2 53551  53.2173 156.1184 0001863  88.3515 271.7690 15.08829606 84252,6917.912,95.438,541.066,538.488,0.0
53551.0,STARLINK-4514,PAYLOAD,2024-02-26 14:14:46,15.08829758,0.0001514,53.2169,155.524,88.1233,271.9932,-1.9933e-05,-6.05e-06,0.0,0 STARLINK-4514,1 53551U 22101AA  24057.59359628 -.00000605  00000-0 -19933-4 0  9992,2 53551  53.2169 155.5240 0001514  88.1233 271.9932 15.08829758 84935,6917.912,95.438,540.824,538.729,0.0
53551.0,STARLINK-4514,PAYLOAD,2024-02-27 12:30:09,15.0884858,0.0001401,53.217,151.3589,87.5829,272.5323,6.0186e-05,6.7e-06,0.0,0 STARLINK-4514,1 53551U 22101AA  24058.52094324  .00000670  00000-0  60186-4 0  9991,2 53551  53.2170 151.3589 0001401  87.5829 272.5323 15.08848580 84414,6917.854,95.437,540.688,538.75,0.0
53551.0,STARLINK-4514,PAYLOAD,2024-02-27 23:37:51,15.08837947,0.0001368,53.2178,149.2748,97.5001,262.6146,7.4846e-05,9.03e-06,0.0,0 STARLINK-4514,1 53551U 22101AA  24058.98462819  .00000903  00000-0  74846-4 0  9996,2 53551  53.2178 149.2748 0001368  97.5001 262.6146 15.08837947 84485,6917.887,95.438,540.698,538.805,0.0
